start=new Date('2021-08-25T00:00:00.000Z').valueOf();
sats=[{"DECAY_DATE":null,"MEAN_MOTION":"15.06391458","REV_AT_EPOCH":"2814","RCS_SIZE":"LARGE","OBJECT_TYPE":"PAYLOAD","ECCENTRICITY":"0.00018280","BSTAR":"0.00011925000000","SITE":"AFETR","NORAD_CAT_ID":"47751","MEAN_MOTION_DOT":"0.00001495","OBJECT_ID":"2021-017AF","FILE":"3102580","INCLINATION":"53.0437","TIME_SYSTEM":"UTC","CLASSIFICATION_TYPE":"U","GP_ID":"183386549","SEMIMAJOR_AXIS":"6925.375","MEAN_ANOMALY":"252.3000","CENTER_NAME":"EARTH","LAUNCH_DATE":"2021-03-04","REF_FRAME":"TEME","ARG_OF_PERICENTER":"107.8189","TLE_LINE1":"1 47751U 21017AF  21236.87407009  .00001495  00000-0  11925-3 0  9994","EPHEMERIS_TYPE":"0","MEAN_ELEMENT_THEORY":"SGP4","PERIAPSIS":"545.974","APOAPSIS":"548.506","TLE_LINE2":"2 47751  53.0437  73.8903 0001828 107.8189 252.3000 15.06391458 28140","RA_OF_ASC_NODE":"73.8903","PERIOD":"95.593","EPOCH":"2021-08-24T20:58:39.655776","ELEMENT_SET_NO":"999","OBJECT_NAME":"STARLINK-2168","MEAN_MOTION_DDOT":"0.0000000000000","COUNTRY_CODE":"US"},{"LAUNCH_DATE":"2021-03-04","CENTER_NAME":"EARTH","MEAN_ANOMALY":"274.1632","ARG_OF_PERICENTER":"85.9591","TLE_LINE1":"1 47752U 21017AG  21236.90768712  .00000497  00000-0  52271-4 0  9991","REF_FRAME":"TEME","MEAN_ELEMENT_THEORY":"SGP4","EPHEMERIS_TYPE":"0","DECAY_DATE":null,"MEAN_MOTION":"15.06390931","BSTAR":"0.00005227100000","SITE":"AFETR","REV_AT_EPOCH":"2798","RCS_SIZE":"LARGE","OBJECT_TYPE":"PAYLOAD","ECCENTRICITY":"0.00020520","OBJECT_ID":"2021-017AG","FILE":"3102580","MEAN_MOTION_DOT":"0.00000497","NORAD_CAT_ID":"47752","CLASSIFICATION_TYPE":"U","GP_ID":"183386300","SEMIMAJOR_AXIS":"6925.376","INCLINATION":"53.0573","TIME_SYSTEM":"UTC","OBJECT_NAME":"STARLINK-2169","MEAN_MOTION_DDOT":"0.0000000000000","COUNTRY_CODE":"US","PERIAPSIS":"545.820","APOAPSIS":"548.662","TLE_LINE2":"2 47752  53.0573  88.6806 0002052  85.9591 274.1632 15.06390931 27980","PERIOD":"95.593","ELEMENT_SET_NO":"999","EPOCH":"2021-08-24T21:47:04.167168","RA_OF_ASC_NODE":"88.6806"},{"EPHEMERIS_TYPE":"0","MEAN_ELEMENT_THEORY":"SGP4","REF_FRAME":"TEME","TLE_LINE1":"1 47753U 21017AH  21236.88326321  .00000474  00000-0  50718-4 0  9994","ARG_OF_PERICENTER":"80.0609","MEAN_ANOMALY":"280.0577","LAUNCH_DATE":"2021-03-04","CENTER_NAME":"EARTH","TIME_SYSTEM":"UTC","INCLINATION":"53.0535","SEMIMAJOR_AXIS":"6925.363","GP_ID":"183387551","CLASSIFICATION_TYPE":"U","MEAN_MOTION_DOT":"0.00000474","NORAD_CAT_ID":"47753","FILE":"3102580","OBJECT_ID":"2021-017AH","OBJECT_TYPE":"PAYLOAD","ECCENTRICITY":"0.00017500","REV_AT_EPOCH":"2790","RCS_SIZE":"LARGE","SITE":"AFETR","BSTAR":"0.00005071800000","MEAN_MOTION":"15.06395183","DECAY_DATE":null,"COUNTRY_CODE":"US","OBJECT_NAME":"STARLINK-2170","MEAN_MOTION_DDOT":"0.0000000000000","RA_OF_ASC_NODE":"93.7910","PERIOD":"95.592","EPOCH":"2021-08-24T21:11:53.941344","ELEMENT_SET_NO":"999","TLE_LINE2":"2 47753  53.0535  93.7910 0001750  80.0609 280.0577 15.06395183 27902","APOAPSIS":"548.440","PERIAPSIS":"546.016"},{"APOAPSIS":"548.858","TLE_LINE2":"2 47754  53.0553  93.6258 0002351  72.2337 287.8908 15.06394701 27870","PERIAPSIS":"545.602","PERIOD":"95.592","ELEMENT_SET_NO":"999","EPOCH":"2021-08-24T22:04:58.347264","RA_OF_ASC_NODE":"93.6258","OBJECT_NAME":"STARLINK-2171","MEAN_MOTION_DDOT":"0.0000000000000","COUNTRY_CODE":"US","BSTAR":"0.00005032700000","SITE":"AFETR","RCS_SIZE":"LARGE","REV_AT_EPOCH":"2787","OBJECT_TYPE":"PAYLOAD","ECCENTRICITY":"0.00023510","DECAY_DATE":null,"MEAN_MOTION":"15.06394701","CLASSIFICATION_TYPE":"U","SEMIMAJOR_AXIS":"6925.365","GP_ID":"183387302","INCLINATION":"53.0553","TIME_SYSTEM":"UTC","OBJECT_ID":"2021-017AJ","FILE":"3102580","MEAN_MOTION_DOT":"0.00000468","NORAD_CAT_ID":"47754","ARG_OF_PERICENTER":"72.2337","TLE_LINE1":"1 47754U 21017AJ  21236.92011976  .00000468  00000-0  50327-4 0  9996","REF_FRAME":"TEME","CENTER_NAME":"EARTH","LAUNCH_DATE":"2021-03-04","MEAN_ANOMALY":"287.8908","MEAN_ELEMENT_THEORY":"SGP4","EPHEMERIS_TYPE":"0"},{"SEMIMAJOR_AXIS":"6925.375","GP_ID":"183386050","CLASSIFICATION_TYPE":"U","INCLINATION":"53.0575","TIME_SYSTEM":"UTC","FILE":"3102580","OBJECT_ID":"2021-017AK","NORAD_CAT_ID":"47755","MEAN_MOTION_DOT":"-0.00001346","SITE":"AFETR","BSTAR":"-0.00007147700000","OBJECT_TYPE":"PAYLOAD","ECCENTRICITY":"0.00021110","RCS_SIZE":"LARGE","REV_AT_EPOCH":"2793","MEAN_MOTION":"15.06391370","DECAY_DATE":null,"MEAN_ELEMENT_THEORY":"SGP4","EPHEMERIS_TYPE":"0","TLE_LINE1":"1 47755U 21017AK  21236.90674053 -.00001346  00000-0 -71477-4 0  9993","ARG_OF_PERICENTER":"99.4632","REF_FRAME":"TEME","CENTER_NAME":"EARTH","LAUNCH_DATE":"2021-03-04","MEAN_ANOMALY":"260.6596","PERIOD":"95.593","ELEMENT_SET_NO":"999","EPOCH":"2021-08-24T21:45:42.381792","RA_OF_ASC_NODE":"88.6850","TLE_LINE2":"2 47755  53.0575  88.6850 0002111  99.4632 260.6596 15.06391370 27938","APOAPSIS":"548.702","PERIAPSIS":"545.778","COUNTRY_CODE":"US","MEAN_MOTION_DDOT":"0.0000000000000","OBJECT_NAME":"STARLINK-2172"},{"DECAY_DATE":null,"MEAN_MOTION":"15.06392505","BSTAR":"-0.00006843200000","SITE":"AFETR","REV_AT_EPOCH":"2791","RCS_SIZE":"LARGE","OBJECT_TYPE":"PAYLOAD","ECCENTRICITY":"0.00020900","OBJECT_ID":"2021-017AL","FILE":"3102580","NORAD_CAT_ID":"47756","MEAN_MOTION_DOT":"-0.00001301","CLASSIFICATION_TYPE":"U","GP_ID":"183386800","SEMIMAJOR_AXIS":"6925.372","TIME_SYSTEM":"UTC","INCLINATION":"53.0556","LAUNCH_DATE":"2021-03-04","CENTER_NAME":"EARTH","MEAN_ANOMALY":"288.7844","ARG_OF_PERICENTER":"71.3372","TLE_LINE1":"1 47756U 21017AL  21236.91644171 -.00001301  00000-0 -68432-4 0  9991","REF_FRAME":"TEME","MEAN_ELEMENT_THEORY":"SGP4","EPHEMERIS_TYPE":"0","PERIAPSIS":"545.789","APOAPSIS":"548.684","TLE_LINE2":"2 47756  53.0556  93.6454 0002090  71.3372 288.7844 15.06392505 27916","ELEMENT_SET_NO":"999","PERIOD":"95.593","EPOCH":"2021-08-24T21:59:40.563744","RA_OF_ASC_NODE":"93.6454","MEAN_MOTION_DDOT":"0.0000000000000","OBJECT_NAME":"STARLINK-2174","COUNTRY_CODE":"US"},{"PERIAPSIS":"545.684","APOAPSIS":"548.735","TLE_LINE2":"2 47757  53.0565  93.7037 0002203  87.6355 272.4886 15.06401410 27857","PERIOD":"95.592","EPOCH":"2021-08-24T21:38:25.752480","ELEMENT_SET_NO":"999","RA_OF_ASC_NODE":"93.7037","MEAN_MOTION_DDOT":"0.0000000000000","OBJECT_NAME":"STARLINK-2175","COUNTRY_CODE":"US","DECAY_DATE":null,"MEAN_MOTION":"15.06401410","BSTAR":"0.00005095000000","SITE":"AFETR","REV_AT_EPOCH":"2785","RCS_SIZE":"LARGE","OBJECT_TYPE":"PAYLOAD","ECCENTRICITY":"0.00022030","OBJECT_ID":"2021-017AM","FILE":"3102580","NORAD_CAT_ID":"47757","MEAN_MOTION_DOT":"0.00000477","CLASSIFICATION_TYPE":"U","SEMIMAJOR_AXIS":"6925.344","GP_ID":"183387052","INCLINATION":"53.0565","TIME_SYSTEM":"UTC","CENTER_NAME":"EARTH","LAUNCH_DATE":"2021-03-04","MEAN_ANOMALY":"272.4886","ARG_OF_PERICENTER":"87.6355","TLE_LINE1":"1 47757U 21017AM  21236.90168695  .00000477  00000-0  50950-4 0  9990","REF_FRAME":"TEME","MEAN_ELEMENT_THEORY":"SGP4","EPHEMERIS_TYPE":"0"},{"MEAN_ELEMENT_THEORY":"SGP4","EPHEMERIS_TYPE":"0","CENTER_NAME":"EARTH","LAUNCH_DATE":"2021-03-04","MEAN_ANOMALY":"242.9350","TLE_LINE1":"1 47758U 21017AN  21236.90539841 -.00001111  00000-0 -55435-4 0  9997","ARG_OF_PERICENTER":"117.2610","REF_FRAME":"TEME","FILE":"3102580","OBJECT_ID":"2021-017AN","NORAD_CAT_ID":"47758","MEAN_MOTION_DOT":"-0.00001111","SEMIMAJOR_AXIS":"6925.368","GP_ID":"183387802","CLASSIFICATION_TYPE":"U","TIME_SYSTEM":"UTC","INCLINATION":"53.0574","MEAN_MOTION":"15.06393538","DECAY_DATE":null,"SITE":"AFETR","BSTAR":"-0.00005543500000","OBJECT_TYPE":"PAYLOAD","ECCENTRICITY":"0.00095260","RCS_SIZE":"LARGE","REV_AT_EPOCH":"2791","COUNTRY_CODE":"US","OBJECT_NAME":"STARLINK-2176","MEAN_MOTION_DDOT":"0.0000000000000","ELEMENT_SET_NO":"999","PERIOD":"95.593","EPOCH":"2021-08-24T21:43:46.422624","RA_OF_ASC_NODE":"93.6867","PERIAPSIS":"540.636","TLE_LINE2":"2 47758  53.0574  93.6867 0009526 117.2610 242.9350 15.06393538 27913","APOAPSIS":"553.830"},{"COUNTRY_CODE":"US","OBJECT_NAME":"STARLINK-2177","MEAN_MOTION_DDOT":"0.0000000000000","RA_OF_ASC_NODE":"89.8169","ELEMENT_SET_NO":"999","PERIOD":"94.100","EPOCH":"2021-08-24T21:59:08.876544","PERIAPSIS":"473.245","APOAPSIS":"476.706","TLE_LINE2":"2 47759  53.0591  89.8169 0002525  97.1229 263.0058 15.30280918 27956","EPHEMERIS_TYPE":"0","MEAN_ELEMENT_THEORY":"SGP4","MEAN_ANOMALY":"263.0058","LAUNCH_DATE":"2021-03-04","CENTER_NAME":"EARTH","REF_FRAME":"TEME","ARG_OF_PERICENTER":"97.1229","TLE_LINE1":"1 47759U 21017AP  21236.91607496  .00007227  00000-0  25526-3 0  9990","MEAN_MOTION_DOT":"0.00007227","NORAD_CAT_ID":"47759","OBJECT_ID":"2021-017AP","FILE":"3102580","INCLINATION":"53.0591","TIME_SYSTEM":"UTC","CLASSIFICATION_TYPE":"U","SEMIMAJOR_AXIS":"6853.110","GP_ID":"183386550","DECAY_DATE":null,"MEAN_MOTION":"15.30280918","RCS_SIZE":"LARGE","REV_AT_EPOCH":"2795","ECCENTRICITY":"0.00025250","OBJECT_TYPE":"PAYLOAD","BSTAR":"0.00025526000000","SITE":"AFETR"},{"RA_OF_ASC_NODE":"103.5349","EPOCH":"2021-08-24T22:24:53.318016","PERIOD":"95.592","ELEMENT_SET_NO":"999","APOAPSIS":"548.942","TLE_LINE2":"2 47760  53.0551 103.5349 0002475  79.8326 280.2942 15.06395157 27753","PERIAPSIS":"545.514","COUNTRY_CODE":"US","MEAN_MOTION_DDOT":"0.0000000000000","OBJECT_NAME":"STARLINK-2178","TIME_SYSTEM":"UTC","INCLINATION":"53.0551","CLASSIFICATION_TYPE":"U","SEMIMAJOR_AXIS":"6925.363","GP_ID":"183386301","NORAD_CAT_ID":"47760","MEAN_MOTION_DOT":"0.00000838","OBJECT_ID":"2021-017AQ","FILE":"3102580","RCS_SIZE":"LARGE","REV_AT_EPOCH":"2775","OBJECT_TYPE":"PAYLOAD","ECCENTRICITY":"0.00024750","BSTAR":"0.00007520000000","SITE":"AFETR","DECAY_DATE":null,"MEAN_MOTION":"15.06395157","EPHEMERIS_TYPE":"0","MEAN_ELEMENT_THEORY":"SGP4","REF_FRAME":"TEME","ARG_OF_PERICENTER":"79.8326","TLE_LINE1":"1 47760U 21017AQ  21236.93395044  .00000838  00000-0  75200-4 0  9993","MEAN_ANOMALY":"280.2942","CENTER_NAME":"EARTH","LAUNCH_DATE":"2021-03-04"}];
